{
"type": "FeatureCollection",
"name": "childcare",
"crs": { "type": "name", "properties": { "name": "urn:ogc:def:crs:OGC:1.3:CRS84" } },
"features": [
{ "type": "Feature", "properties": { "cartodb_id": 1219, "created_at": "2015-05-13T22:26:15Z", "updated_at": "2015-10-05T16:00:16Z", "label": "Maine", "bees": 60.5, "iso3166_2": "ME", "google_name": "Maine (United States)", "STATE_NAME": "Maine", "MHI": 69543, "CHILD_POP": 174583.0, "ADJ_CENTER_INFANT_COST": 0.17197992608889465, "ADJ_FAMILY_INFANT_COST": 0.13584170944595431, "ADJ_CENTER_PRESCHOOL_COST": 0.14506132896193721, "ADJ_FAMILY_PRESCHOOL_COST": 0.1121608213623226, "ADJ_CENTER_SCHOOLAGE_COST": 0.1183894856419769, "ADJ_FAMILY_SCHOOLAGE_COST": 0.11091209755115541, "ADJ_CENTER_TODDLER_COST": 0.15951512014149519, "ADJ_FAMILY_TODDLER_COST": 0.12212817968738766, "R_Rank": 10.0, "Qual_Rank": 46 }, "geometry": { "type": "Polygon", "coordinates": [ [ [ -72.625738, 55.313204 ], [ -69.902864, 54.408434 ], [ -69.902864, 52.537442 ], [ -72.625738, 51.57081 ], [ -75.348611, 52.537442 ], [ -75.348611, 54.408434 ], [ -72.625738, 55.313204 ] ] ] } },
{ "type": "Feature", "properties": { "cartodb_id": 1217, "created_at": "2015-05-13T22:24:35Z", "updated_at": "2015-10-05T16:00:16Z", "label": "R.I.", "bees": 47.8, "iso3166_2": "RI", "google_name": "Rhode Island (United States)", "STATE_NAME": "Rhode Island", "MHI": 81854, "CHILD_POP": 145376.0, "ADJ_CENTER_INFANT_COST": 0.18396999535758787, "ADJ_FAMILY_INFANT_COST": 0.16167175703081096, "ADJ_CENTER_PRESCHOOL_COST": 0.1558081462115474, "ADJ_FAMILY_PRESCHOOL_COST": 0.13251252229579497, "ADJ_CENTER_SCHOOLAGE_COST": 0.039368143279497642, "ADJ_FAMILY_SCHOOLAGE_COST": 0.13403083538984042, "ADJ_CENTER_TODDLER_COST": 0.17736946270188383, "ADJ_FAMILY_TODDLER_COST": 0.15827937547340387, "R_Rank": 4.0, "Qual_Rank": 26 }, "geometry": { "type": "Polygon", "coordinates": [ [ [ -72.625738, 49.57439 ], [ -69.902864, 48.544312 ], [ -69.902864, 46.419873 ], [ -72.625738, 45.325375 ], [ -75.348611, 46.419873 ], [ -75.348611, 48.544312 ], [ -72.625738, 49.57439 ] ] ] } },
{ "type": "Feature", "properties": { "cartodb_id": 1218, "created_at": "2015-05-13T22:25:00Z", "updated_at": "2015-10-05T16:00:16Z", "label": "Vt.", "bees": 33.9, "iso3166_2": "VT", "google_name": "Vermont (United States)", "STATE_NAME": "Vermont", "MHI": 73991, "CHILD_POP": 80585.0, "ADJ_CENTER_INFANT_COST": null, "ADJ_FAMILY_INFANT_COST": null, "ADJ_CENTER_PRESCHOOL_COST": null, "ADJ_FAMILY_PRESCHOOL_COST": null, "ADJ_CENTER_SCHOOLAGE_COST": null, "ADJ_FAMILY_SCHOOLAGE_COST": null, "ADJ_CENTER_TODDLER_COST": null, "ADJ_FAMILY_TODDLER_COST": null, "R_Rank": 8.0, "Qual_Rank": 34 }, "geometry": { "type": "Polygon", "coordinates": [ [ [ -80.794358, 52.537442 ], [ -78.071485, 51.57081 ], [ -78.071485, 49.57439 ], [ -80.794358, 48.544312 ], [ -83.517232, 49.57439 ], [ -83.517232, 51.57081 ], [ -80.794358, 52.537442 ] ] ] } },
{ "type": "Feature", "properties": { "cartodb_id": 231, "created_at": "2015-05-13T22:02:22Z", "updated_at": "2015-10-05T16:00:16Z", "label": "Okla.", "bees": 63.4, "iso3166_2": "OK", "google_name": "Oklahoma (United States)", "STATE_NAME": "Oklahoma", "MHI": 59673, "CHILD_POP": 673242.0, "ADJ_CENTER_INFANT_COST": 0.18775526620079433, "ADJ_FAMILY_INFANT_COST": 0.13622844502538839, "ADJ_CENTER_PRESCHOOL_COST": 0.16247549142828413, "ADJ_FAMILY_PRESCHOOL_COST": 0.1250656075612086, "ADJ_CENTER_SCHOOLAGE_COST": 0.10621688200693781, "ADJ_FAMILY_SCHOOLAGE_COST": 0.095385182578385533, "ADJ_CENTER_TODDLER_COST": 0.16247549142828413, "ADJ_FAMILY_TODDLER_COST": 0.1250656075612086, "R_Rank": 26.0, "Qual_Rank": 3 }, "geometry": { "type": "Polygon", "coordinates": [ [ [ -110.745967, 35.798214 ], [ -108.023093, 34.512972 ], [ -108.023093, 31.882459 ], [ -110.745967, 30.53798 ], [ -113.46884, 31.882459 ], [ -113.46884, 34.512972 ], [ -110.745967, 35.798214 ] ] ] } },
{ "type": "Feature", "properties": { "cartodb_id": 244, "created_at": "2015-05-13T22:02:22Z", "updated_at": "2015-10-05T16:00:16Z", "label": "N.C.", "bees": 41.5, "iso3166_2": "NC", "google_name": "North Carolina (United States)", "STATE_NAME": "North Carolina", "MHI": 67481, "CHILD_POP": 1601362.0, "ADJ_CENTER_INFANT_COST": 0.15605933522028423, "ADJ_FAMILY_INFANT_COST": 0.13407448022406307, "ADJ_CENTER_PRESCHOOL_COST": 0.10311998933033001, "ADJ_FAMILY_PRESCHOOL_COST": 0.11271380092174095, "ADJ_CENTER_SCHOOLAGE_COST": 0.069460737096367867, "ADJ_FAMILY_SCHOOLAGE_COST": 0.077390080170714734, "ADJ_CENTER_TODDLER_COST": 0.13005201464115826, "ADJ_FAMILY_TODDLER_COST": 0.11284480075873209, "R_Rank": 34.0, "Qual_Rank": 20 }, "geometry": { "type": "Polygon", "coordinates": [ [ [ -91.685852, 39.530104 ], [ -88.962979, 38.307039 ], [ -88.962979, 35.798214 ], [ -91.685852, 34.512972 ], [ -94.408726, 35.798214 ], [ -94.408726, 38.307039 ], [ -91.685852, 39.530104 ] ] ] } },
{ "type": "Feature", "properties": { "cartodb_id": 259, "created_at": "2015-05-13T22:02:22Z", "updated_at": "2015-10-05T16:00:16Z", "label": "Va.", "bees": 45.6, "iso3166_2": "VA", "google_name": "Virginia (United States)", "STATE_NAME": "Virginia", "MHI": 85873, "CHILD_POP": 1325832.0, "ADJ_CENTER_INFANT_COST": 0.14940016070243267, "ADJ_FAMILY_INFANT_COST": 0.10793241181745135, "ADJ_CENTER_PRESCHOOL_COST": 0.11308560315815215, "ADJ_FAMILY_PRESCHOOL_COST": 0.092212453274020945, "ADJ_CENTER_SCHOOLAGE_COST": 0.094010923107379504, "ADJ_FAMILY_SCHOOLAGE_COST": 0.089590441698787743, "ADJ_CENTER_TODDLER_COST": 0.11779069090400943, "ADJ_FAMILY_TODDLER_COST": 0.092654501414880103, "R_Rank": 41.0, "Qual_Rank": 12 }, "geometry": { "type": "Polygon", "coordinates": [ [ [ -88.962979, 43.071698 ], [ -86.240105, 41.912567 ], [ -86.240105, 39.530104 ], [ -88.962979, 38.307039 ], [ -91.685852, 39.530104 ], [ -91.685852, 41.912567 ], [ -88.962979, 43.071698 ] ] ] } },
{ "type": "Feature", "properties": { "cartodb_id": 260, "created_at": "2015-05-13T22:02:22Z", "updated_at": "2015-10-05T16:00:16Z", "label": "W.Va.", "bees": 59.5, "iso3166_2": "WV", "google_name": "West Virginia (United States)", "STATE_NAME": "West Virginia", "MHI": 54329, "CHILD_POP": 251134.0, "ADJ_CENTER_INFANT_COST": 0.16030996337131181, "ADJ_FAMILY_INFANT_COST": 0.14733125954830756, "ADJ_CENTER_PRESCHOOL_COST": 0.15778313607833752, "ADJ_FAMILY_PRESCHOOL_COST": 0.15777356476283386, "ADJ_CENTER_SCHOOLAGE_COST": 0.14017191555154704, "ADJ_FAMILY_SCHOOLAGE_COST": 0.13091645345947836, "ADJ_CENTER_TODDLER_COST": 0.1522796296637155, "ADJ_FAMILY_TODDLER_COST": 0.15309319148152919, "R_Rank": 22.0, "Qual_Rank": 17 }, "geometry": { "type": "Polygon", "coordinates": [ [ [ -94.408726, 43.071698 ], [ -91.685852, 41.912567 ], [ -91.685852, 39.530104 ], [ -94.408726, 38.307039 ], [ -97.131599, 39.530104 ], [ -97.131599, 41.912567 ], [ -94.408726, 43.071698 ] ] ] } },
{ "type": "Feature", "properties": { "cartodb_id": 250, "created_at": "2015-05-13T22:02:22Z", "updated_at": "2015-10-05T16:00:16Z", "label": "Calif.", "bees": 40.1, "iso3166_2": "CA", "google_name": "California (United States)", "STATE_NAME": "California", "MHI": 91551, "CHILD_POP": 6157706.0, "ADJ_CENTER_INFANT_COST": 0.21538727048311868, "ADJ_FAMILY_INFANT_COST": 0.16151915325883934, "ADJ_CENTER_PRESCHOOL_COST": 0.1277919411038656, "ADJ_FAMILY_PRESCHOOL_COST": 0.12701947548361023, "ADJ_CENTER_SCHOOLAGE_COST": 0.11279134034581817, "ADJ_FAMILY_SCHOOLAGE_COST": 0.10568011272405545, "ADJ_CENTER_TODDLER_COST": 0.13423294120217147, "ADJ_FAMILY_TODDLER_COST": 0.13522124280455702, "R_Rank": 37.0, "Qual_Rank": 49 }, "geometry": { "type": "Polygon", "coordinates": [ [ [ -124.360334, 39.530104 ], [ -121.637461, 38.307039 ], [ -121.637461, 35.798214 ], [ -124.360334, 34.512972 ], [ -127.083208, 35.798214 ], [ -127.083208, 38.307039 ], [ -124.360334, 39.530104 ] ] ] } },
{ "type": "Feature", "properties": { "cartodb_id": 247, "created_at": "2015-05-13T22:02:22Z", "updated_at": "2015-10-05T16:00:16Z", "label": "Kan.", "bees": 40.8, "iso3166_2": "KS", "google_name": "Kansas (United States)", "STATE_NAME": "Kansas", "MHI": 68925, "CHILD_POP": 495347.0, "ADJ_CENTER_INFANT_COST": 0.11869655422560756, "ADJ_FAMILY_INFANT_COST": 0.090736887921653978, "ADJ_CENTER_PRESCHOOL_COST": 0.10381138919114979, "ADJ_FAMILY_PRESCHOOL_COST": 0.073935437069278201, "ADJ_CENTER_SCHOOLAGE_COST": 0.063976786361987656, "ADJ_FAMILY_SCHOOLAGE_COST": 0.073935437069278201, "ADJ_CENTER_TODDLER_COST": 0.1116575988393181, "ADJ_FAMILY_TODDLER_COST": 0.073935437069278201, "R_Rank": 15.0, "Qual_Rank": 27 }, "geometry": { "type": "Polygon", "coordinates": [ [ [ -108.023093, 39.530104 ], [ -105.30022, 38.307039 ], [ -105.30022, 35.798214 ], [ -108.023093, 34.512972 ], [ -110.745967, 35.798214 ], [ -110.745967, 38.307039 ], [ -108.023093, 39.530104 ] ] ] } },
{ "type": "Feature", "properties": { "cartodb_id": 261, "created_at": "2015-05-13T22:02:22Z", "updated_at": "2015-10-05T16:00:16Z", "label": "Ky.", "bees": 47.7, "iso3166_2": "KY", "google_name": "Kentucky (United States)", "STATE_NAME": "Kentucky", "MHI": 59341, "CHILD_POP": 715567.0, "ADJ_CENTER_INFANT_COST": 0.13258286850575488, "ADJ_FAMILY_INFANT_COST": 0.10316577071501996, "ADJ_CENTER_PRESCHOOL_COST": 0.11777354611482786, "ADJ_FAMILY_PRESCHOOL_COST": 0.092036871640181331, "ADJ_CENTER_SCHOOLAGE_COST": 0.11006218297635699, "ADJ_FAMILY_SCHOOLAGE_COST": 0.092036871640181331, "ADJ_CENTER_TODDLER_COST": 0.11777354611482786, "ADJ_FAMILY_TODDLER_COST": 0.092036871640181331, "R_Rank": 31.0, "Qual_Rank": 38 }, "geometry": { "type": "Polygon", "coordinates": [ [ [ -99.854473, 43.071698 ], [ -97.131599, 41.912567 ], [ -97.131599, 39.530104 ], [ -99.854473, 38.307039 ], [ -102.577346, 39.530104 ], [ -102.577346, 41.912567 ], [ -99.854473, 43.071698 ] ] ] } },
{ "type": "Feature", "properties": { "cartodb_id": 258, "created_at": "2015-05-13T22:02:22Z", "updated_at": "2015-10-05T16:00:16Z", "label": "Md.", "bees": 60.9, "iso3166_2": "MD", "google_name": "Maryland (United States)", "STATE_NAME": "Maryland", "MHI": 94991, "CHILD_POP": 962021.0, "ADJ_CENTER_INFANT_COST": 0.17921992609826193, "ADJ_FAMILY_INFANT_COST": 0.13094840563842891, "ADJ_CENTER_PRESCHOOL_COST": 0.12633365266183111, "ADJ_FAMILY_PRESCHOOL_COST": 0.11203503489804297, "ADJ_CENTER_SCHOOLAGE_COST": 0.1223101135897085, "ADJ_FAMILY_SCHOOLAGE_COST": 0.097413439167921168, "ADJ_CENTER_TODDLER_COST": 0.12633365266183111, "ADJ_FAMILY_TODDLER_COST": 0.11203503489804297, "R_Rank": 9.0, "Qual_Rank": 17 }, "geometry": { "type": "Polygon", "coordinates": [ [ [ -83.517232, 43.071698 ], [ -80.794358, 41.912567 ], [ -80.794358, 39.530104 ], [ -83.517232, 38.307039 ], [ -86.240105, 39.530104 ], [ -86.240105, 41.912567 ], [ -83.517232, 43.071698 ] ] ] } },
{ "type": "Feature", "properties": { "cartodb_id": 262, "created_at": "2015-05-13T22:02:22Z", "updated_at": "2015-10-05T16:00:16Z", "label": "Mo.", "bees": 34.9, "iso3166_2": "MO", "google_name": "Missouri (United States)", "STATE_NAME": "Missouri", "MHI": 64811, "CHILD_POP": 969226.0, "ADJ_CENTER_INFANT_COST": null, "ADJ_FAMILY_INFANT_COST": null, "ADJ_CENTER_PRESCHOOL_COST": null, "ADJ_FAMILY_PRESCHOOL_COST": null, "ADJ_CENTER_SCHOOLAGE_COST": null, "ADJ_FAMILY_SCHOOLAGE_COST": null, "ADJ_CENTER_TODDLER_COST": null, "ADJ_FAMILY_TODDLER_COST": null, "R_Rank": 30.0, "Qual_Rank": 32 }, "geometry": { "type": "Polygon", "coordinates": [ [ [ -105.30022, 43.071698 ], [ -102.577346, 41.912567 ], [ -102.577346, 39.530104 ], [ -105.30022, 38.307039 ], [ -108.023093, 39.530104 ], [ -108.023093, 41.912567 ], [ -105.30022, 43.071698 ] ] ] } },
{ "type": "Feature", "properties": { "cartodb_id": 263, "created_at": "2015-05-13T22:02:22Z", "updated_at": "2015-10-05T16:00:16Z", "label": "Neb.", "bees": 37.3, "iso3166_2": "NE", "google_name": "Nebraska (United States)", "STATE_NAME": "Nebraska", "MHI": 69597, "CHILD_POP": 341345.0, "ADJ_CENTER_INFANT_COST": 0.18211991896202423, "ADJ_FAMILY_INFANT_COST": 0.1120737962843226, "ADJ_CENTER_PRESCHOOL_COST": 0.15316752158857422, "ADJ_FAMILY_PRESCHOOL_COST": 0.1120737962843226, "ADJ_CENTER_SCHOOLAGE_COST": 0.1323068523068523, "ADJ_FAMILY_SCHOOLAGE_COST": 0.1120737962843226, "ADJ_CENTER_TODDLER_COST": 0.16895498369182579, "ADJ_FAMILY_TODDLER_COST": 0.1120737962843226, "R_Rank": 38.0, "Qual_Rank": 50 }, "geometry": { "type": "Polygon", "coordinates": [ [ [ -110.745967, 43.071698 ], [ -108.023093, 41.912567 ], [ -108.023093, 39.530104 ], [ -110.745967, 38.307039 ], [ -113.46884, 39.530104 ], [ -113.46884, 41.912567 ], [ -110.745967, 43.071698 ] ] ] } },
{ "type": "Feature", "properties": { "cartodb_id": 248, "created_at": "2015-05-13T22:02:22Z", "updated_at": "2015-10-05T16:00:16Z", "label": "N.M.", "bees": 46.1, "iso3166_2": "NM", "google_name": "New Mexico (United States)", "STATE_NAME": "New Mexico", "MHI": 59726, "CHILD_POP": 329443.0, "ADJ_CENTER_INFANT_COST": null, "ADJ_FAMILY_INFANT_COST": null, "ADJ_CENTER_PRESCHOOL_COST": null, "ADJ_FAMILY_PRESCHOOL_COST": null, "ADJ_CENTER_SCHOOLAGE_COST": null, "ADJ_FAMILY_SCHOOLAGE_COST": null, "ADJ_CENTER_TODDLER_COST": null, "ADJ_FAMILY_TODDLER_COST": null, "R_Rank": 43.0, "Qual_Rank": 24 }, "geometry": { "type": "Polygon", "coordinates": [ [ [ -113.46884, 39.530104 ], [ -110.745967, 38.307039 ], [ -110.745967, 35.798214 ], [ -113.46884, 34.512972 ], [ -116.191714, 35.798214 ], [ -116.191714, 38.307039 ], [ -113.46884, 39.530104 ] ] ] } },
{ "type": "Feature", "properties": { "cartodb_id": 243, "created_at": "2015-05-13T22:02:22Z", "updated_at": "2015-10-05T16:00:16Z", "label": "S.C.", "bees": 26.6, "iso3166_2": "SC", "google_name": "South Carolina (United States)", "STATE_NAME": "South Carolina", "MHI": 64115, "CHILD_POP": 776969.0, "ADJ_CENTER_INFANT_COST": 0.16134071590111521, "ADJ_FAMILY_INFANT_COST": 0.11154269671683693, "ADJ_CENTER_PRESCHOOL_COST": 0.1468960461670436, "ADJ_FAMILY_PRESCHOOL_COST": 0.1080714341417765, "ADJ_CENTER_SCHOOLAGE_COST": 0.11164002183576387, "ADJ_FAMILY_SCHOOLAGE_COST": 0.072563986586602194, "ADJ_CENTER_TODDLER_COST": 0.150067222958746, "ADJ_FAMILY_TODDLER_COST": 0.11154269671683693, "R_Rank": 45.0, "Qual_Rank": 44 }, "geometry": { "type": "Polygon", "coordinates": [ [ [ -86.240105, 39.530104 ], [ -83.517232, 38.307039 ], [ -83.517232, 35.798214 ], [ -86.240105, 34.512972 ], [ -88.962979, 35.798214 ], [ -88.962979, 38.307039 ], [ -86.240105, 39.530104 ] ] ] } },
{ "type": "Feature", "properties": { "cartodb_id": 245, "created_at": "2015-05-13T22:02:22Z", "updated_at": "2015-10-05T16:00:16Z", "label": "Tenn.", "bees": 36.4, "iso3166_2": "TN", "google_name": "Tennessee (United States)", "STATE_NAME": "Tennessee", "MHI": 65254, "CHILD_POP": 1077326.0, "ADJ_CENTER_INFANT_COST": 0.16867686272105925, "ADJ_FAMILY_INFANT_COST": 0.12351733227081865, "ADJ_CENTER_PRESCHOOL_COST": 0.11662426824409232, "ADJ_FAMILY_PRESCHOOL_COST": 0.10220860023906579, "ADJ_CENTER_SCHOOLAGE_COST": 0.060826309498268304, "ADJ_FAMILY_SCHOOLAGE_COST": 0.0836730315382965, "ADJ_CENTER_TODDLER_COST": 0.11662426824409232, "ADJ_FAMILY_TODDLER_COST": 0.10220860023906579, "R_Rank": 20.0, "Qual_Rank": 9 }, "geometry": { "type": "Polygon", "coordinates": [ [ [ -97.131599, 39.530104 ], [ -94.408726, 38.307039 ], [ -94.408726, 35.798214 ], [ -97.131599, 34.512972 ], [ -99.854473, 35.798214 ], [ -99.854473, 38.307039 ], [ -97.131599, 39.530104 ] ] ] } },
{ "type": "Feature", "properties": { "cartodb_id": 279, "created_at": "2015-05-13T22:02:22Z", "updated_at": "2015-10-05T16:00:16Z", "label": "Iowa", "bees": 61.4, "iso3166_2": "IA", "google_name": "Iowa (United States)", "STATE_NAME": "Iowa", "MHI": 69588, "CHILD_POP": 515778.0, "ADJ_CENTER_INFANT_COST": 0.12402943036155657, "ADJ_FAMILY_INFANT_COST": 0.083617865149163653, "ADJ_CENTER_PRESCHOOL_COST": 0.10687244927286314, "ADJ_FAMILY_PRESCHOOL_COST": 0.082242915445191703, "ADJ_CENTER_SCHOOLAGE_COST": 0.085500948439386104, "ADJ_FAMILY_SCHOOLAGE_COST": 0.079343564982468251, "ADJ_CENTER_TODDLER_COST": 0.10687244927286314, "ADJ_FAMILY_TODDLER_COST": 0.082242915445191703, "R_Rank": 40.0, "Qual_Rank": 43 }, "geometry": { "type": "Polygon", "coordinates": [ [ [ -108.023093, 46.419873 ], [ -105.30022, 45.325375 ], [ -105.30022, 43.071698 ], [ -108.023093, 41.912567 ], [ -110.745967, 43.071698 ], [ -110.745967, 45.325375 ], [ -108.023093, 46.419873 ] ] ] } },
{ "type": "Feature", "properties": { "cartodb_id": 265, "created_at": "2015-05-13T22:02:22Z", "updated_at": "2015-10-05T16:00:16Z", "label": "Nev.", "bees": 26.7, "iso3166_2": "NV", "google_name": "Nevada (United States)", "STATE_NAME": "Nevada", "MHI": 72333, "CHILD_POP": 486274.0, "ADJ_CENTER_INFANT_COST": 0.19814966889248337, "ADJ_FAMILY_INFANT_COST": 0.13937981281019729, "ADJ_CENTER_PRESCHOOL_COST": 0.16482158903958083, "ADJ_FAMILY_PRESCHOOL_COST": 0.12389476449200228, "ADJ_CENTER_SCHOOLAGE_COST": 0.15270098018884878, "ADJ_FAMILY_SCHOOLAGE_COST": 0.092917478882391158, "ADJ_CENTER_TODDLER_COST": 0.17287323904718455, "ADJ_FAMILY_TODDLER_COST": 0.13705777445979014, "R_Rank": 44.0, "Qual_Rank": 28 }, "geometry": { "type": "Polygon", "coordinates": [ [ [ -121.637461, 43.071698 ], [ -118.914587, 41.912567 ], [ -118.914587, 39.530104 ], [ -121.637461, 38.307039 ], [ -124.360334, 39.530104 ], [ -124.360334, 41.912567 ], [ -121.637461, 43.071698 ] ] ] } },
{ "type": "Feature", "properties": { "cartodb_id": 274, "created_at": "2015-05-13T22:02:22Z", "updated_at": "2015-10-05T16:00:16Z", "label": "N.J.", "bees": 47.6, "iso3166_2": "NJ", "google_name": "New Jersey (United States)", "STATE_NAME": "New Jersey", "MHI": 96346, "CHILD_POP": 1414447.0, "ADJ_CENTER_INFANT_COST": 0.16932680132024164, "ADJ_FAMILY_INFANT_COST": 0.10491104975816329, "ADJ_CENTER_PRESCHOOL_COST": 0.16353019326178564, "ADJ_FAMILY_PRESCHOOL_COST": 0.10010752911381894, "ADJ_CENTER_SCHOOLAGE_COST": 0.078955846636082447, "ADJ_FAMILY_SCHOOLAGE_COST": 0.089712494550889504, "ADJ_CENTER_TODDLER_COST": 0.16353019326178564, "ADJ_FAMILY_TODDLER_COST": 0.10676229423120837, "R_Rank": 14.0, "Qual_Rank": 16 }, "geometry": { "type": "Polygon", "coordinates": [ [ [ -80.794358, 46.419873 ], [ -78.071485, 45.325375 ], [ -78.071485, 43.071698 ], [ -80.794358, 41.912567 ], [ -83.517232, 43.071698 ], [ -83.517232, 45.325375 ], [ -80.794358, 46.419873 ] ] ] } },
{ "type": "Feature", "properties": { "cartodb_id": 280, "created_at": "2015-05-13T22:02:22Z", "updated_at": "2015-10-05T16:00:16Z", "label": "S.D.", "bees": 36.1, "iso3166_2": "SD", "google_name": "South Dakota (United States)", "STATE_NAME": "South Dakota", "MHI": 69728, "CHILD_POP": 155420.0, "ADJ_CENTER_INFANT_COST": 0.11186324001835704, "ADJ_FAMILY_INFANT_COST": 0.076365305185865082, "ADJ_CENTER_PRESCHOOL_COST": 0.10172097292335934, "ADJ_FAMILY_PRESCHOOL_COST": 0.07457549334557137, "ADJ_CENTER_SCHOOLAGE_COST": 0.089490592014685635, "ADJ_FAMILY_SCHOOLAGE_COST": 0.081436438733363939, "ADJ_CENTER_TODDLER_COST": 0.11186324001835704, "ADJ_FAMILY_TODDLER_COST": 0.076365305185865082, "R_Rank": 23.0, "Qual_Rank": 28 }, "geometry": { "type": "Polygon", "coordinates": [ [ [ -113.46884, 46.419873 ], [ -110.745967, 45.325375 ], [ -110.745967, 43.071698 ], [ -113.46884, 41.912567 ], [ -116.191714, 43.071698 ], [ -116.191714, 45.325375 ], [ -113.46884, 46.419873 ] ] ] } },
{ "type": "Feature", "properties": { "cartodb_id": 276, "created_at": "2015-05-13T22:02:22Z", "updated_at": "2015-10-05T16:00:16Z", "label": "Ohio", "bees": 49.8, "iso3166_2": "OH", "google_name": "Ohio (United States)", "STATE_NAME": "Ohio", "MHI": 65720, "CHILD_POP": 1821690.0, "ADJ_CENTER_INFANT_COST": 0.23341448569689593, "ADJ_FAMILY_INFANT_COST": 0.15824710894704808, "ADJ_CENTER_PRESCHOOL_COST": 0.18356664637857578, "ADJ_FAMILY_PRESCHOOL_COST": 0.13846622032866707, "ADJ_CENTER_SCHOOLAGE_COST": 0.11868533171028606, "ADJ_FAMILY_SCHOOLAGE_COST": 0.12264150943396226, "ADJ_CENTER_TODDLER_COST": 0.20967741935483872, "ADJ_FAMILY_TODDLER_COST": 0.15033475349969569, "R_Rank": 28.0, "Qual_Rank": 32 }, "geometry": { "type": "Polygon", "coordinates": [ [ [ -91.685852, 46.419873 ], [ -88.962979, 45.325375 ], [ -88.962979, 43.071698 ], [ -91.685852, 41.912567 ], [ -94.408726, 43.071698 ], [ -94.408726, 45.325375 ], [ -91.685852, 46.419873 ] ] ] } },
{ "type": "Feature", "properties": { "cartodb_id": 281, "created_at": "2015-05-13T22:02:22Z", "updated_at": "2015-10-05T16:00:16Z", "label": "Wyo.", "bees": 32.5, "iso3166_2": "WY", "google_name": "Wyoming (United States)", "STATE_NAME": "Wyoming", "MHI": 70042, "CHILD_POP": 92852.0, "ADJ_CENTER_INFANT_COST": 0.11965449301847463, "ADJ_FAMILY_INFANT_COST": 0.11052282915964706, "ADJ_CENTER_PRESCHOOL_COST": 0.11553410810656463, "ADJ_FAMILY_PRESCHOOL_COST": 0.098503183804003316, "ADJ_CENTER_SCHOOLAGE_COST": 0.093863110705005581, "ADJ_FAMILY_SCHOOLAGE_COST": 0.089468033465634908, "ADJ_CENTER_TODDLER_COST": 0.11553410810656463, "ADJ_FAMILY_TODDLER_COST": 0.098406670283544162, "R_Rank": 25.0, "Qual_Rank": 45 }, "geometry": { "type": "Polygon", "coordinates": [ [ [ -118.914587, 46.419873 ], [ -116.191714, 45.325375 ], [ -116.191714, 43.071698 ], [ -118.914587, 41.912567 ], [ -121.637461, 43.071698 ], [ -121.637461, 45.325375 ], [ -118.914587, 46.419873 ] ] ] } },
{ "type": "Feature", "properties": { "cartodb_id": 242, "created_at": "2015-05-13T22:02:22Z", "updated_at": "2015-10-05T16:00:16Z", "label": "D.C.", "bees": null, "iso3166_2": "DC", "google_name": "District of Columbia (United States)", "STATE_NAME": "District of Columbia", "MHI": 101027, "CHILD_POP": 95087.0, "ADJ_CENTER_INFANT_COST": 0.25220980529957338, "ADJ_FAMILY_INFANT_COST": 0.2058855553465905, "ADJ_CENTER_PRESCHOOL_COST": 0.20202520118384196, "ADJ_FAMILY_PRESCHOOL_COST": 0.18954338939095489, "ADJ_CENTER_SCHOOLAGE_COST": null, "ADJ_FAMILY_SCHOOLAGE_COST": null, "ADJ_CENTER_TODDLER_COST": 0.23193007809793423, "ADJ_FAMILY_TODDLER_COST": 0.20241123660011681, "R_Rank": null, "Qual_Rank": 15 }, "geometry": { "type": "Polygon", "coordinates": [ [ [ -80.794358, 39.530104 ], [ -78.071485, 38.307039 ], [ -78.071485, 35.798214 ], [ -80.794358, 34.512972 ], [ -83.517232, 35.798214 ], [ -83.517232, 38.307039 ], [ -80.794358, 39.530104 ] ] ] } },
{ "type": "Feature", "properties": { "cartodb_id": 257, "created_at": "2015-05-13T22:02:22Z", "updated_at": "2015-10-05T16:00:16Z", "label": "Del.", "bees": 61.0, "iso3166_2": "DE", "google_name": "Delaware (United States)", "STATE_NAME": "Delaware", "MHI": 82174, "CHILD_POP": 145418.0, "ADJ_CENTER_INFANT_COST": 0.17736218268552095, "ADJ_FAMILY_INFANT_COST": 0.11496142332124516, "ADJ_CENTER_PRESCHOOL_COST": 0.13305327719229929, "ADJ_FAMILY_PRESCHOOL_COST": 0.09814783264779614, "ADJ_CENTER_SCHOOLAGE_COST": 0.067203738408742428, "ADJ_FAMILY_SCHOOLAGE_COST": 0.054528683038430649, "ADJ_CENTER_TODDLER_COST": 0.12606079781926158, "ADJ_FAMILY_TODDLER_COST": 0.097236595516830143, "R_Rank": 18.0, "Qual_Rank": 7 }, "geometry": { "type": "Polygon", "coordinates": [ [ [ -78.071485, 43.071698 ], [ -75.348611, 41.912567 ], [ -75.348611, 39.530104 ], [ -78.071485, 38.307039 ], [ -80.794358, 39.530104 ], [ -80.794358, 41.912567 ], [ -78.071485, 43.071698 ] ] ] } },
{ "type": "Feature", "properties": { "cartodb_id": 212, "created_at": "2015-05-13T22:02:22Z", "updated_at": "2015-10-05T16:00:16Z", "label": "Fla.", "bees": 54.8, "iso3166_2": "FL", "google_name": "Florida (United States)", "STATE_NAME": "Florida", "MHI": 69303, "CHILD_POP": 2975950.0, "ADJ_CENTER_INFANT_COST": 0.16882386043894204, "ADJ_FAMILY_INFANT_COST": 0.13130744700806604, "ADJ_CENTER_PRESCHOOL_COST": 0.12380416432189083, "ADJ_FAMILY_PRESCHOOL_COST": 0.11254924029262803, "ADJ_CENTER_SCHOOLAGE_COST": 0.093791033577190014, "ADJ_FAMILY_SCHOOLAGE_COST": 0.090039392234102414, "ADJ_CENTER_TODDLER_COST": 0.13505908835115363, "ADJ_FAMILY_TODDLER_COST": 0.11254924029262803, "R_Rank": 48.0, "Qual_Rank": 24 }, "geometry": { "type": "Polygon", "coordinates": [ [ [ -91.685852, 31.882459 ], [ -88.962979, 30.53798 ], [ -88.962979, 27.792925 ], [ -91.685852, 26.393432 ], [ -94.408726, 27.792925 ], [ -94.408726, 30.53798 ], [ -91.685852, 31.882459 ] ] ] } },
{ "type": "Feature", "properties": { "cartodb_id": 305, "created_at": "2015-05-13T22:02:22Z", "updated_at": "2015-10-05T16:00:16Z", "label": "N.H.", "bees": 39.4, "iso3166_2": "NH", "google_name": "New Hampshire (United States)", "STATE_NAME": "New Hampshire", "MHI": 89992, "CHILD_POP": 175932.0, "ADJ_CENTER_INFANT_COST": 0.17337763356742822, "ADJ_FAMILY_INFANT_COST": 0.119281269446173, "ADJ_CENTER_PRESCHOOL_COST": 0.14415103564761314, "ADJ_FAMILY_PRESCHOOL_COST": 0.11095475153346965, "ADJ_CENTER_SCHOOLAGE_COST": 0.12879233709663079, "ADJ_FAMILY_SCHOOLAGE_COST": null, "ADJ_CENTER_TODDLER_COST": 0.16445595164014581, "ADJ_FAMILY_TODDLER_COST": 0.11095475153346965, "R_Rank": 16.0, "Qual_Rank": 12 }, "geometry": { "type": "Polygon", "coordinates": [ [ [ -75.348611, 52.537442 ], [ -72.625738, 51.57081 ], [ -72.625738, 49.57439 ], [ -75.348611, 48.544312 ], [ -78.071485, 49.57439 ], [ -78.071485, 51.57081 ], [ -75.348611, 52.537442 ] ] ] } },
{ "type": "Feature", "properties": { "cartodb_id": 220, "created_at": "2015-05-13T22:02:22Z", "updated_at": "2015-10-05T16:00:16Z", "label": "H.I.", "bees": 13.9, "iso3166_2": "HI", "google_name": "Hawaii (United States)", "STATE_NAME": "Hawaii", "MHI": 92458, "CHILD_POP": 220951.0, "ADJ_CENTER_INFANT_COST": 0.20571545999264532, "ADJ_FAMILY_INFANT_COST": 0.11680849683099352, "ADJ_CENTER_PRESCHOOL_COST": 0.14796080382443921, "ADJ_FAMILY_PRESCHOOL_COST": 0.11680849683099352, "ADJ_CENTER_SCHOOLAGE_COST": 0.030499902658504403, "ADJ_FAMILY_SCHOOLAGE_COST": null, "ADJ_CENTER_TODDLER_COST": 0.14796080382443921, "ADJ_FAMILY_TODDLER_COST": 0.11680849683099352, "R_Rank": 36.0, "Qual_Rank": 39 }, "geometry": { "type": "Polygon", "coordinates": [ [ [ -135.251828, 31.882459 ], [ -132.528955, 30.53798 ], [ -132.528955, 27.792925 ], [ -135.251828, 26.393432 ], [ -137.974702, 27.792925 ], [ -137.974702, 30.53798 ], [ -135.251828, 31.882459 ] ] ] } },
{ "type": "Feature", "properties": { "cartodb_id": 215, "created_at": "2015-05-13T22:02:22Z", "updated_at": "2015-10-05T16:00:16Z", "label": "Texas", "bees": 46.3, "iso3166_2": "TX", "google_name": "Texas (United States)", "STATE_NAME": "Texas", "MHI": 72284, "CHILD_POP": 5222545.0, "ADJ_CENTER_INFANT_COST": 0.13308616014609043, "ADJ_FAMILY_INFANT_COST": 0.11797908250788557, "ADJ_CENTER_PRESCHOOL_COST": 0.12013723645620054, "ADJ_FAMILY_PRESCHOOL_COST": 0.11006585136406397, "ADJ_CENTER_SCHOOLAGE_COST": 0.11222400531237894, "ADJ_FAMILY_SCHOOLAGE_COST": 0.10359138951911903, "ADJ_CENTER_TODDLER_COST": 0.12373415970339217, "ADJ_FAMILY_TODDLER_COST": 0.11150462066294062, "R_Rank": 33.0, "Qual_Rank": 3 }, "geometry": { "type": "Polygon", "coordinates": [ [ [ -108.023093, 31.882459 ], [ -105.30022, 30.53798 ], [ -105.30022, 27.792925 ], [ -108.023093, 26.393432 ], [ -110.745967, 27.792925 ], [ -110.745967, 30.53798 ], [ -108.023093, 31.882459 ] ] ] } },
{ "type": "Feature", "properties": { "cartodb_id": 228, "created_at": "2015-05-13T22:02:22Z", "updated_at": "2015-10-05T16:00:16Z", "label": "Ala.", "bees": 48.1, "iso3166_2": "AL", "google_name": "Alabama (United States)", "STATE_NAME": "Alabama", "MHI": 59674, "CHILD_POP": 782102.0, "ADJ_CENTER_INFANT_COST": 0.11851928813218486, "ADJ_FAMILY_INFANT_COST": 0.11813587156885745, "ADJ_CENTER_PRESCHOOL_COST": 0.10944800080437041, "ADJ_FAMILY_PRESCHOOL_COST": 0.11268961356704761, "ADJ_CENTER_SCHOOLAGE_COST": 0.098372490531889928, "ADJ_FAMILY_SCHOOLAGE_COST": 0.10230251030599591, "ADJ_CENTER_TODDLER_COST": 0.11707276200690418, "ADJ_FAMILY_TODDLER_COST": 0.11301203204075477, "R_Rank": 47.0, "Qual_Rank": 47 }, "geometry": { "type": "Polygon", "coordinates": [ [ [ -94.408726, 35.798214 ], [ -91.685852, 34.512972 ], [ -91.685852, 31.882459 ], [ -94.408726, 30.53798 ], [ -97.131599, 31.882459 ], [ -97.131599, 34.512972 ], [ -94.408726, 35.798214 ] ] ] } },
{ "type": "Feature", "properties": { "cartodb_id": 232, "created_at": "2015-05-13T22:02:22Z", "updated_at": "2015-10-05T16:00:16Z", "label": "Ariz.", "bees": 42.9, "iso3166_2": "AZ", "google_name": "Arizona (United States)", "STATE_NAME": "Arizona", "MHI": 74568, "CHILD_POP": 1114705.0, "ADJ_CENTER_INFANT_COST": 0.18828451882845187, "ADJ_FAMILY_INFANT_COST": 0.12552301255230125, "ADJ_CENTER_PRESCHOOL_COST": 0.14644351464435146, "ADJ_FAMILY_PRESCHOOL_COST": 0.11956066945606694, "ADJ_CENTER_SCHOOLAGE_COST": 0.12203626220362622, "ADJ_FAMILY_SCHOOLAGE_COST": 0.10460251046025104, "ADJ_CENTER_TODDLER_COST": 0.14644351464435146, "ADJ_FAMILY_TODDLER_COST": 0.11956066945606694, "R_Rank": 46.0, "Qual_Rank": 21 }, "geometry": { "type": "Polygon", "coordinates": [ [ [ -116.191714, 35.798214 ], [ -113.46884, 34.512972 ], [ -113.46884, 31.882459 ], [ -116.191714, 30.53798 ], [ -118.914587, 31.882459 ], [ -118.914587, 34.512972 ], [ -116.191714, 35.798214 ] ] ] } },
{ "type": "Feature", "properties": { "cartodb_id": 227, "created_at": "2015-05-13T22:02:22Z", "updated_at": "2015-10-05T16:00:16Z", "label": "Ga.", "bees": 34.9, "iso3166_2": "GA", "google_name": "Georgia (United States)", "STATE_NAME": "Georgia", "MHI": 72837, "CHILD_POP": 1753431.0, "ADJ_CENTER_INFANT_COST": 0.14635418811867595, "ADJ_FAMILY_INFANT_COST": 0.11636942762606917, "ADJ_CENTER_PRESCHOOL_COST": 0.1277921935280146, "ADJ_FAMILY_PRESCHOOL_COST": 0.10994412180622486, "ADJ_CENTER_SCHOOLAGE_COST": 0.058541675247470379, "ADJ_FAMILY_SCHOOLAGE_COST": 0.054972060903112428, "ADJ_CENTER_TODDLER_COST": 0.13407471477408461, "ADJ_FAMILY_TODDLER_COST": 0.10923019893735327, "R_Rank": 39.0, "Qual_Rank": 21 }, "geometry": { "type": "Polygon", "coordinates": [ [ [ -88.962979, 35.798214 ], [ -86.240105, 34.512972 ], [ -86.240105, 31.882459 ], [ -88.962979, 30.53798 ], [ -91.685852, 31.882459 ], [ -91.685852, 34.512972 ], [ -88.962979, 35.798214 ] ] ] } },
{ "type": "Feature", "properties": { "cartodb_id": 230, "created_at": "2015-05-13T22:02:22Z", "updated_at": "2015-10-05T16:00:16Z", "label": "La.", "bees": 44.3, "iso3166_2": "LA", "google_name": "Louisiana (United States)", "STATE_NAME": "Louisiana", "MHI": 55416, "CHILD_POP": 768893.0, "ADJ_CENTER_INFANT_COST": 0.14387830229536597, "ADJ_FAMILY_INFANT_COST": 0.12824527212357439, "ADJ_CENTER_PRESCHOOL_COST": 0.13220513930994657, "ADJ_FAMILY_PRESCHOOL_COST": 0.12824527212357439, "ADJ_CENTER_SCHOOLAGE_COST": 0.11917135845243251, "ADJ_FAMILY_SCHOOLAGE_COST": 0.11087628121842066, "ADJ_CENTER_TODDLER_COST": 0.13819185794716329, "ADJ_FAMILY_TODDLER_COST": 0.12824527212357439, "R_Rank": 50.0, "Qual_Rank": 48 }, "geometry": { "type": "Polygon", "coordinates": [ [ [ -105.30022, 35.798214 ], [ -102.577346, 34.512972 ], [ -102.577346, 31.882459 ], [ -105.30022, 30.53798 ], [ -108.023093, 31.882459 ], [ -108.023093, 34.512972 ], [ -105.30022, 35.798214 ] ] ] } },
{ "type": "Feature", "properties": { "cartodb_id": 229, "created_at": "2015-05-13T22:02:22Z", "updated_at": "2015-10-05T16:00:16Z", "label": "Miss.", "bees": 38.7, "iso3166_2": "MS", "google_name": "Mississippi (United States)", "STATE_NAME": "Mississippi", "MHI": 52719, "CHILD_POP": 483141.0, "ADJ_CENTER_INFANT_COST": 0.11706140101291755, "ADJ_FAMILY_INFANT_COST": null, "ADJ_CENTER_PRESCHOOL_COST": 0.10654678578880479, "ADJ_FAMILY_PRESCHOOL_COST": null, "ADJ_CENTER_SCHOOLAGE_COST": 0.099750753997609978, "ADJ_FAMILY_SCHOOLAGE_COST": null, "ADJ_CENTER_TODDLER_COST": 0.10654678578880479, "ADJ_FAMILY_TODDLER_COST": null, "R_Rank": 32.0, "Qual_Rank": 42 }, "geometry": { "type": "Polygon", "coordinates": [ [ [ -99.854473, 35.798214 ], [ -97.131599, 34.512972 ], [ -97.131599, 31.882459 ], [ -99.854473, 30.53798 ], [ -102.577346, 31.882459 ], [ -102.577346, 34.512972 ], [ -99.854473, 35.798214 ] ] ] } },
{ "type": "Feature", "properties": { "cartodb_id": 249, "created_at": "2015-05-13T22:02:22Z", "updated_at": "2015-10-05T16:00:16Z", "label": "Utah", "bees": 33.5, "iso3166_2": "UT", "google_name": "Utah (United States)", "STATE_NAME": "Utah", "MHI": 89168, "CHILD_POP": 660375.0, "ADJ_CENTER_INFANT_COST": 0.13195361564686883, "ADJ_FAMILY_INFANT_COST": 0.098077337161313477, "ADJ_CENTER_PRESCHOOL_COST": 0.098007356899336096, "ADJ_FAMILY_PRESCHOOL_COST": 0.086134039117172073, "ADJ_CENTER_SCHOOLAGE_COST": 0.095453077337161324, "ADJ_FAMILY_SCHOOLAGE_COST": 0.08411044320832585, "ADJ_CENTER_TODDLER_COST": 0.10722725641485735, "ADJ_FAMILY_TODDLER_COST": 0.090840211735151638, "R_Rank": 27.0, "Qual_Rank": 14 }, "geometry": { "type": "Polygon", "coordinates": [ [ [ -118.914587, 39.530104 ], [ -116.191714, 38.307039 ], [ -116.191714, 35.798214 ], [ -118.914587, 34.512972 ], [ -121.637461, 35.798214 ], [ -121.637461, 38.307039 ], [ -118.914587, 39.530104 ] ] ] } },
{ "type": "Feature", "properties": { "cartodb_id": 264, "created_at": "2015-05-13T22:02:22Z", "updated_at": "2015-10-05T16:00:16Z", "label": "Colo.", "bees": 38.0, "iso3166_2": "CO", "google_name": "Colorado (United States)", "STATE_NAME": "Colorado", "MHI": 89302, "CHILD_POP": 870010.0, "ADJ_CENTER_INFANT_COST": 0.21975767619986114, "ADJ_FAMILY_INFANT_COST": 0.14344807507110702, "ADJ_CENTER_PRESCHOOL_COST": 0.16091688875949028, "ADJ_FAMILY_PRESCHOOL_COST": 0.13023000604689705, "ADJ_CENTER_SCHOOLAGE_COST": 0.098163087052921552, "ADJ_FAMILY_SCHOOLAGE_COST": 0.11549797316969383, "ADJ_CENTER_TODDLER_COST": 0.18953662851895814, "ADJ_FAMILY_TODDLER_COST": 0.13023000604689705, "R_Rank": 24.0, "Qual_Rank": 34 }, "geometry": { "type": "Polygon", "coordinates": [ [ [ -116.191714, 43.071698 ], [ -113.46884, 41.912567 ], [ -113.46884, 39.530104 ], [ -116.191714, 38.307039 ], [ -118.914587, 39.530104 ], [ -118.914587, 41.912567 ], [ -116.191714, 43.071698 ] ] ] } },
{ "type": "Feature", "properties": { "cartodb_id": 246, "created_at": "2015-05-13T22:02:22Z", "updated_at": "2015-10-05T16:00:16Z", "label": "Ark.", "bees": 48.3, "iso3166_2": "AR", "google_name": "Arkansas (United States)", "STATE_NAME": "Arkansas", "MHI": 55432, "CHILD_POP": 492653.0, "ADJ_CENTER_INFANT_COST": null, "ADJ_FAMILY_INFANT_COST": null, "ADJ_CENTER_PRESCHOOL_COST": null, "ADJ_FAMILY_PRESCHOOL_COST": null, "ADJ_CENTER_SCHOOLAGE_COST": null, "ADJ_FAMILY_SCHOOLAGE_COST": null, "ADJ_CENTER_TODDLER_COST": null, "ADJ_FAMILY_TODDLER_COST": null, "R_Rank": 35.0, "Qual_Rank": 40 }, "geometry": { "type": "Polygon", "coordinates": [ [ [ -102.577346, 39.530104 ], [ -99.854473, 38.307039 ], [ -99.854473, 35.798214 ], [ -102.577346, 34.512972 ], [ -105.30022, 35.798214 ], [ -105.30022, 38.307039 ], [ -102.577346, 39.530104 ] ] ] } },
{ "type": "Feature", "properties": { "cartodb_id": 282, "created_at": "2015-05-13T22:02:22Z", "updated_at": "2015-10-05T16:00:16Z", "label": "Idaho", "bees": 33.3, "iso3166_2": "ID", "google_name": "Idaho (United States)", "STATE_NAME": "Idaho", "MHI": 72785, "CHILD_POP": 317436.0, "ADJ_CENTER_INFANT_COST": 0.11888878202926427, "ADJ_FAMILY_INFANT_COST": 0.092876279453184038, "ADJ_CENTER_PRESCHOOL_COST": 0.10020636120079686, "ADJ_FAMILY_PRESCHOOL_COST": 0.086389228549838562, "ADJ_CENTER_SCHOOLAGE_COST": 0.096205536855121246, "ADJ_FAMILY_SCHOOLAGE_COST": 0.0849889400288521, "ADJ_CENTER_TODDLER_COST": 0.11034416431957134, "ADJ_FAMILY_TODDLER_COST": 0.094083671086075432, "R_Rank": 49.0, "Qual_Rank": 51 }, "geometry": { "type": "Polygon", "coordinates": [ [ [ -124.360334, 46.419873 ], [ -121.637461, 45.325375 ], [ -121.637461, 43.071698 ], [ -124.360334, 41.912567 ], [ -127.083208, 43.071698 ], [ -127.083208, 45.325375 ], [ -124.360334, 46.419873 ] ] ] } },
{ "type": "Feature", "properties": { "cartodb_id": 266, "created_at": "2015-05-13T22:02:22Z", "updated_at": "2015-10-05T16:00:16Z", "label": "Ore.", "bees": 25.2, "iso3166_2": "OR", "google_name": "Oregon (United States)", "STATE_NAME": "Oregon", "MHI": 75657, "CHILD_POP": 600101.0, "ADJ_CENTER_INFANT_COST": 0.22642822210767016, "ADJ_FAMILY_INFANT_COST": 0.15782756387379887, "ADJ_CENTER_PRESCHOOL_COST": 0.16292054932127892, "ADJ_FAMILY_PRESCHOOL_COST": 0.13309806098576471, "ADJ_CENTER_SCHOOLAGE_COST": 0.059363178555850743, "ADJ_FAMILY_SCHOOLAGE_COST": 0.11316599918051207, "ADJ_CENTER_TODDLER_COST": 0.20789140462878519, "ADJ_FAMILY_TODDLER_COST": 0.14222557066761835, "R_Rank": 17.0, "Qual_Rank": 31 }, "geometry": { "type": "Polygon", "coordinates": [ [ [ -127.083208, 43.071698 ], [ -124.360334, 41.912567 ], [ -124.360334, 39.530104 ], [ -127.083208, 38.307039 ], [ -129.806081, 39.530104 ], [ -129.806081, 41.912567 ], [ -127.083208, 43.071698 ] ] ] } },
{ "type": "Feature", "properties": { "cartodb_id": 278, "created_at": "2015-05-13T22:02:22Z", "updated_at": "2015-10-05T16:00:16Z", "label": "Ill.", "bees": 62.4, "iso3166_2": "IL", "google_name": "Illinois (United States)", "STATE_NAME": "Illinois", "MHI": 76708, "CHILD_POP": 1970123.0, "ADJ_CENTER_INFANT_COST": 0.18867862543672106, "ADJ_FAMILY_INFANT_COST": 0.14084632632841426, "ADJ_CENTER_PRESCHOOL_COST": 0.12823747197163268, "ADJ_FAMILY_PRESCHOOL_COST": 0.11939771601397507, "ADJ_CENTER_SCHOOLAGE_COST": 0.055214579965583779, "ADJ_FAMILY_SCHOOLAGE_COST": 0.035318350106898891, "ADJ_CENTER_TODDLER_COST": 0.14913698701569589, "ADJ_FAMILY_TODDLER_COST": 0.13122699066590185, "R_Rank": 19.0, "Qual_Rank": 7 }, "geometry": { "type": "Polygon", "coordinates": [ [ [ -102.577346, 46.419873 ], [ -99.854473, 45.325375 ], [ -99.854473, 43.071698 ], [ -102.577346, 41.912567 ], [ -105.30022, 43.071698 ], [ -105.30022, 45.325375 ], [ -102.577346, 46.419873 ] ] ] } },
{ "type": "Feature", "properties": { "cartodb_id": 275, "created_at": "2015-05-13T22:02:22Z", "updated_at": "2015-10-05T16:00:16Z", "label": "Pa.", "bees": 60.6, "iso3166_2": "PA", "google_name": "Pennsylvania (United States)", "STATE_NAME": "Pennsylvania", "MHI": 71798, "CHILD_POP": 1868891.0, "ADJ_CENTER_INFANT_COST": null, "ADJ_FAMILY_INFANT_COST": null, "ADJ_CENTER_PRESCHOOL_COST": null, "ADJ_FAMILY_PRESCHOOL_COST": null, "ADJ_CENTER_SCHOOLAGE_COST": null, "ADJ_FAMILY_SCHOOLAGE_COST": null, "ADJ_CENTER_TODDLER_COST": null, "ADJ_FAMILY_TODDLER_COST": null, "R_Rank": 3.0, "Qual_Rank": 21 }, "geometry": { "type": "Polygon", "coordinates": [ [ [ -86.240105, 46.419873 ], [ -83.517232, 45.325375 ], [ -83.517232, 43.071698 ], [ -86.240105, 41.912567 ], [ -88.962979, 43.071698 ], [ -88.962979, 45.325375 ], [ -86.240105, 46.419873 ] ] ] } },
{ "type": "Feature", "properties": { "cartodb_id": 277, "created_at": "2015-05-13T22:02:22Z", "updated_at": "2015-10-05T16:00:16Z", "label": "Ind.", "bees": 49.1, "iso3166_2": "IN", "google_name": "Indiana (United States)", "STATE_NAME": "Indiana", "MHI": 66785, "CHILD_POP": 1110519.0, "ADJ_CENTER_INFANT_COST": null, "ADJ_FAMILY_INFANT_COST": null, "ADJ_CENTER_PRESCHOOL_COST": null, "ADJ_FAMILY_PRESCHOOL_COST": null, "ADJ_CENTER_SCHOOLAGE_COST": null, "ADJ_FAMILY_SCHOOLAGE_COST": null, "ADJ_CENTER_TODDLER_COST": null, "ADJ_FAMILY_TODDLER_COST": null, "R_Rank": 12.0, "Qual_Rank": 11 }, "geometry": { "type": "Polygon", "coordinates": [ [ [ -97.131599, 46.419873 ], [ -94.408726, 45.325375 ], [ -94.408726, 43.071698 ], [ -97.131599, 41.912567 ], [ -99.854473, 43.071698 ], [ -99.854473, 45.325375 ], [ -97.131599, 46.419873 ] ] ] } },
{ "type": "Feature", "properties": { "cartodb_id": 290, "created_at": "2015-05-13T22:02:22Z", "updated_at": "2015-10-05T16:00:16Z", "label": "N.Y.", "bees": 54.1, "iso3166_2": "NY", "google_name": "New York (United States)", "STATE_NAME": "New York", "MHI": 79557, "CHILD_POP": 2924420.0, "ADJ_CENTER_INFANT_COST": 0.19608582525736265, "ADJ_FAMILY_INFANT_COST": 0.16340485438113553, "ADJ_CENTER_PRESCHOOL_COST": 0.16928742913885642, "ADJ_FAMILY_PRESCHOOL_COST": 0.13072388350490843, "ADJ_CENTER_SCHOOLAGE_COST": 0.14706436894302199, "ADJ_FAMILY_SCHOOLAGE_COST": 0.12418768932966301, "ADJ_CENTER_TODDLER_COST": 0.18105257865429816, "ADJ_FAMILY_TODDLER_COST": 0.14379627185539928, "R_Rank": 2.0, "Qual_Rank": 1 }, "geometry": { "type": "Polygon", "coordinates": [ [ [ -83.517232, 49.57439 ], [ -80.794358, 48.544312 ], [ -80.794358, 46.419873 ], [ -83.517232, 45.325375 ], [ -86.240105, 46.419873 ], [ -86.240105, 48.544312 ], [ -83.517232, 49.57439 ] ] ] } },
{ "type": "Feature", "properties": { "cartodb_id": 298, "created_at": "2015-05-13T22:02:22Z", "updated_at": "2015-10-05T16:00:16Z", "label": "Wash.", "bees": 39.3, "iso3166_2": "WA", "google_name": "Washington (United States)", "STATE_NAME": "Washington", "MHI": 91306, "CHILD_POP": 1185809.0, "ADJ_CENTER_INFANT_COST": 0.20349287012901671, "ADJ_FAMILY_INFANT_COST": 0.14457100300089806, "ADJ_CENTER_PRESCHOOL_COST": 0.14184303331654, "ADJ_FAMILY_PRESCHOOL_COST": 0.1190738834249666, "ADJ_CENTER_SCHOOLAGE_COST": 0.11368059054169498, "ADJ_FAMILY_SCHOOLAGE_COST": 0.11127724355464043, "ADJ_CENTER_TODDLER_COST": 0.14184303331654, "ADJ_FAMILY_TODDLER_COST": 0.11692112237969028, "R_Rank": 13.0, "Qual_Rank": 2 }, "geometry": { "type": "Polygon", "coordinates": [ [ [ -127.083208, 49.57439 ], [ -124.360334, 48.544312 ], [ -124.360334, 46.419873 ], [ -127.083208, 45.325375 ], [ -129.806081, 46.419873 ], [ -129.806081, 48.544312 ], [ -127.083208, 49.57439 ] ] ] } },
{ "type": "Feature", "properties": { "cartodb_id": 294, "created_at": "2015-05-13T22:02:22Z", "updated_at": "2015-10-05T16:00:16Z", "label": "Wis.", "bees": 60.2, "iso3166_2": "WI", "google_name": "Wisconsin (United States)", "STATE_NAME": "Wisconsin", "MHI": 70996, "CHILD_POP": 886072.0, "ADJ_CENTER_INFANT_COST": 0.21460363964166995, "ADJ_FAMILY_INFANT_COST": 0.16113583863879655, "ADJ_CENTER_PRESCHOOL_COST": 0.18951771930813002, "ADJ_FAMILY_PRESCHOOL_COST": 0.14648712603526959, "ADJ_CENTER_SCHOOLAGE_COST": 0.15014930418615133, "ADJ_FAMILY_SCHOOLAGE_COST": 0.13183841343174263, "ADJ_CENTER_TODDLER_COST": 0.18951771930813002, "ADJ_FAMILY_TODDLER_COST": 0.14648712603526959, "R_Rank": 11.0, "Qual_Rank": 6 }, "geometry": { "type": "Polygon", "coordinates": [ [ [ -105.30022, 49.57439 ], [ -102.577346, 48.544312 ], [ -102.577346, 46.419873 ], [ -105.30022, 45.325375 ], [ -108.023093, 46.419873 ], [ -108.023093, 48.544312 ], [ -105.30022, 49.57439 ] ] ] } },
{ "type": "Feature", "properties": { "cartodb_id": 289, "created_at": "2015-05-13T22:02:22Z", "updated_at": "2015-10-05T16:00:16Z", "label": "Mass.", "bees": 46.4, "iso3166_2": "MA", "google_name": "Massachusetts (United States)", "STATE_NAME": "Massachusetts", "MHI": 94488, "CHILD_POP": 950188.0, "ADJ_CENTER_INFANT_COST": 0.25400685801371603, "ADJ_FAMILY_INFANT_COST": 0.13758360850055035, "ADJ_CENTER_PRESCHOOL_COST": 0.17060367454068243, "ADJ_FAMILY_PRESCHOOL_COST": 0.12932859199051733, "ADJ_CENTER_SCHOOLAGE_COST": 0.11557023114046228, "ADJ_FAMILY_SCHOOLAGE_COST": 0.1238252476504953, "ADJ_CENTER_TODDLER_COST": 0.22481161628989924, "ADJ_FAMILY_TODDLER_COST": 0.13626280585894504, "R_Rank": 1.0, "Qual_Rank": 17 }, "geometry": { "type": "Polygon", "coordinates": [ [ [ -78.071485, 49.57439 ], [ -75.348611, 48.544312 ], [ -75.348611, 46.419873 ], [ -78.071485, 45.325375 ], [ -80.794358, 46.419873 ], [ -80.794358, 48.544312 ], [ -78.071485, 49.57439 ] ] ] } },
{ "type": "Feature", "properties": { "cartodb_id": 292, "created_at": "2015-05-13T22:02:22Z", "updated_at": "2015-10-05T16:00:16Z", "label": "Mich.", "bees": 27.7, "iso3166_2": "MI", "google_name": "Michigan (United States)", "STATE_NAME": "Michigan", "MHI": 66986, "CHILD_POP": 1497205.0, "ADJ_CENTER_INFANT_COST": 0.1344519750395605, "ADJ_FAMILY_INFANT_COST": 0.14159376586152331, "ADJ_CENTER_PRESCHOOL_COST": 0.12082823276505539, "ADJ_FAMILY_PRESCHOOL_COST": 0.12946048428029738, "ADJ_CENTER_SCHOOLAGE_COST": 0.10809721434329561, "ADJ_FAMILY_SCHOOLAGE_COST": 0.12521422386767384, "ADJ_CENTER_TODDLER_COST": 0.1344519750395605, "ADJ_FAMILY_TODDLER_COST": 0.14159376586152331, "R_Rank": 29.0, "Qual_Rank": 28 }, "geometry": { "type": "Polygon", "coordinates": [ [ [ -94.408726, 49.57439 ], [ -91.685852, 48.544312 ], [ -91.685852, 46.419873 ], [ -94.408726, 45.325375 ], [ -97.131599, 46.419873 ], [ -97.131599, 48.544312 ], [ -94.408726, 49.57439 ] ] ] } },
{ "type": "Feature", "properties": { "cartodb_id": 295, "created_at": "2015-05-13T22:02:22Z", "updated_at": "2015-10-05T16:00:16Z", "label": "Minn.", "bees": 51.2, "iso3166_2": "MN", "google_name": "Minnesota (United States)", "STATE_NAME": "Minnesota", "MHI": 82338, "CHILD_POP": 925810.0, "ADJ_CENTER_INFANT_COST": 0.24630182904612694, "ADJ_FAMILY_INFANT_COST": 0.12946634603706672, "ADJ_CENTER_PRESCHOOL_COST": 0.19514683378270056, "ADJ_FAMILY_PRESCHOOL_COST": 0.11683548300906021, "ADJ_CENTER_SCHOOLAGE_COST": 0.14967572688187714, "ADJ_FAMILY_SCHOOLAGE_COST": 0.090519079890208659, "ADJ_CENTER_TODDLER_COST": 0.21949913770069712, "ADJ_FAMILY_TODDLER_COST": 0.11473244431489714, "R_Rank": 7.0, "Qual_Rank": 9 }, "geometry": { "type": "Polygon", "coordinates": [ [ [ -110.745967, 49.57439 ], [ -108.023093, 48.544312 ], [ -108.023093, 46.419873 ], [ -110.745967, 45.325375 ], [ -113.46884, 46.419873 ], [ -113.46884, 48.544312 ], [ -110.745967, 49.57439 ] ] ] } },
{ "type": "Feature", "properties": { "cartodb_id": 297, "created_at": "2015-05-13T22:02:22Z", "updated_at": "2015-10-05T16:00:16Z", "label": "Mont.", "bees": 41.1, "iso3166_2": "MT", "google_name": "Montana (United States)", "STATE_NAME": "Montana", "MHI": 67631, "CHILD_POP": 162610.0, "ADJ_CENTER_INFANT_COST": 0.16977599030030607, "ADJ_FAMILY_INFANT_COST": 0.13681418284514496, "ADJ_CENTER_PRESCHOOL_COST": 0.15170735313687511, "ADJ_FAMILY_PRESCHOOL_COST": 0.13985894042672742, "ADJ_CENTER_SCHOOLAGE_COST": 0.15267613964010587, "ADJ_FAMILY_SCHOOLAGE_COST": 0.12940988599902412, "ADJ_CENTER_TODDLER_COST": 0.17688811343910338, "ADJ_FAMILY_TODDLER_COST": 0.13985894042672742, "R_Rank": 42.0, "Qual_Rank": 37 }, "geometry": { "type": "Polygon", "coordinates": [ [ [ -121.637461, 49.57439 ], [ -118.914587, 48.544312 ], [ -118.914587, 46.419873 ], [ -121.637461, 45.325375 ], [ -124.360334, 46.419873 ], [ -124.360334, 48.544312 ], [ -121.637461, 49.57439 ] ] ] } },
{ "type": "Feature", "properties": { "cartodb_id": 296, "created_at": "2015-05-13T22:02:22Z", "updated_at": "2015-10-05T16:00:16Z", "label": "N.D.", "bees": 40.4, "iso3166_2": "ND", "google_name": "North Dakota (United States)", "STATE_NAME": "North Dakota", "MHI": 71970, "CHILD_POP": 133494.0, "ADJ_CENTER_INFANT_COST": 0.15448270112546897, "ADJ_FAMILY_INFANT_COST": 0.11366736140058357, "ADJ_CENTER_PRESCHOOL_COST": 0.13077671251910519, "ADJ_FAMILY_PRESCHOOL_COST": 0.10795942753925246, "ADJ_CENTER_SCHOOLAGE_COST": 0.12985188272891482, "ADJ_FAMILY_SCHOOLAGE_COST": 0.11318327080728081, "ADJ_CENTER_TODDLER_COST": 0.14087758788384047, "ADJ_FAMILY_TODDLER_COST": 0.10708517437821315, "R_Rank": 5.0, "Qual_Rank": 3 }, "geometry": { "type": "Polygon", "coordinates": [ [ [ -116.191714, 49.57439 ], [ -113.46884, 48.544312 ], [ -113.46884, 46.419873 ], [ -116.191714, 45.325375 ], [ -118.914587, 46.419873 ], [ -118.914587, 48.544312 ], [ -116.191714, 49.57439 ] ] ] } },
{ "type": "Feature", "properties": { "cartodb_id": 331, "created_at": "2015-05-13T22:02:22Z", "updated_at": "2015-10-05T16:00:16Z", "label": "A.K.", "bees": null, "iso3166_2": "AK", "google_name": "Alaska (United States)", "STATE_NAME": "Alaska", "MHI": 88121, "CHILD_POP": 129481.0, "ADJ_CENTER_INFANT_COST": 0.21355636000499312, "ADJ_FAMILY_INFANT_COST": 0.15319526560070812, "ADJ_CENTER_PRESCHOOL_COST": 0.1709808104765039, "ADJ_FAMILY_PRESCHOOL_COST": 0.13523269141294356, "ADJ_CENTER_SCHOOLAGE_COST": 0.072174850489667611, "ADJ_FAMILY_SCHOOLAGE_COST": 0.076252425642014954, "ADJ_CENTER_TODDLER_COST": 0.19896914469876648, "ADJ_FAMILY_TODDLER_COST": 0.13806516040444389, "R_Rank": 21.0, "Qual_Rank": 34 }, "geometry": { "type": "Polygon", "coordinates": [ [ [ -132.528955, 55.313204 ], [ -129.806081, 54.408434 ], [ -129.806081, 52.537442 ], [ -132.528955, 51.57081 ], [ -135.251828, 52.537442 ], [ -135.251828, 54.408434 ], [ -132.528955, 55.313204 ] ] ] } },
{ "type": "Feature", "properties": { "cartodb_id": 273, "created_at": "2015-05-13T22:02:22Z", "updated_at": "2015-10-05T16:00:16Z", "label": "Conn.", "bees": 57.5, "iso3166_2": "CT", "google_name": "Connecticut (United States)", "STATE_NAME": "Connecticut", "MHI": 88429, "CHILD_POP": 510143.0, "ADJ_CENTER_INFANT_COST": 0.20581483449999435, "ADJ_FAMILY_INFANT_COST": 0.14701059607142453, "ADJ_CENTER_PRESCHOOL_COST": 0.16759207952142396, "ADJ_FAMILY_PRESCHOOL_COST": 0.14407038414999604, "ADJ_CENTER_SCHOOLAGE_COST": 0.070565086114283776, "ADJ_FAMILY_SCHOOLAGE_COST": 0.082325933799997739, "ADJ_CENTER_TODDLER_COST": 0.20581483449999435, "ADJ_FAMILY_TODDLER_COST": 0.14407038414999604, "R_Rank": 6.0, "Qual_Rank": 41 }, "geometry": { "type": "Polygon", "coordinates": [ [ [ -75.348611, 46.419873 ], [ -72.625738, 45.325375 ], [ -72.625738, 43.071698 ], [ -75.348611, 41.912567 ], [ -78.071485, 43.071698 ], [ -78.071485, 45.325375 ], [ -75.348611, 46.419873 ] ] ] } }
]
}
